S-NET C                 
1 43189U 18014K   23066.19273562  .00008362  00000+0  68532-3 0  9996
2 43189  97.6416 331.7825 0011008 135.4002 224.8109 14.99466320276818
FENGMANIU-1 (FMN-1)     
1 43192U 18015A   23066.80769684  .00934049  37519-3  28522-2 0  9997
2 43192  97.5470 229.6613 0007757 253.6267 213.8417 15.91955363284264
SHAONIAN XING           
1 43199U 18015H   23066.84130064  .00107679  00000+0  17861-2 0  9998
2 43199  97.5362 219.7500 0010358 191.0549 275.1674 15.51690501283985
LUOJIA-1 01             
1 43485U 18048B   23066.74908310  .00004207  00000+0  58528-3 0  9997
2 43485  97.9108 148.6225 0012002  71.9208 288.3351 14.78293646256755
CZ-4B R/B               
1 43656U 18081B   23066.13235845  .00000990  00000+0  31489-3 0  9995
2 43656  99.4327 226.7554 0208512 109.9416 252.4356 14.30757725227918
CUBEBEL-1 (BSUSAT-1)    
1 43666U 18083E   23066.72151964  .00039911  00000+0  13126-2 0  9994
2 43666  97.3950  98.1446 0012754 122.3902  15.1495 15.31339169241632
CHANGSHAGAOXIN (TY 4-01)
1 43669U 18083H   23066.88501451  .00036183  00000+0  12866-2 0  9992
2 43669  97.3941  93.4106 0010153 119.3056   3.2758 15.28854513241432
TEN-KOH                 
1 43677U 18084G   23066.12399649  .00007173  00000+0  70637-3 0  9991
2 43677  97.9947 204.2960 0016373 124.1089 236.1685 14.92278346236831
DIWATA-2B               
1 43678U 18084H   23066.80233647  .00003174  00000+0  31123-3 0  9996
2 43678  98.0019 208.8601 0010312 133.6025 226.6072 14.92938797237139
STARS-AO                
1 43679U 18084J   23066.35555302  .00012257  00000+0  11087-2 0  9990
2 43679  98.0063 211.1574 0009264 136.9891 223.2055 14.95546873237201
AUTCUBE 2               
1 43681U 18084K   23066.10590859  .00008374  00000+0  77976-3 0  9997
2 43681  98.0016 209.1061 0009398 134.0322 226.1673 14.94512939237052
METOP-C                 
1 43689U 18087A   23066.76306265  .00000458  00000+0  22918-3 0  9997
2 43689  98.6966 127.8591 0003006  18.6989 341.4298 14.21503044224710
ES'HAIL 2               
1 43700U 18090A   23066.01124437  .00000143  00000+0  00000+0 0  9997
2 43700   0.0272 252.1647 0001097  79.9310 222.2006  1.00270430 15906
FACSAT-1                
1 43721U 18096C   23066.74452208  .00141739  00000+0  18432-2 0  9994
2 43721  97.3203 153.7235 0010463 185.9463 330.5181 15.58238809238585
CENTAURI-2              
1 43722U 18096D   23066.19787884  .00902888  33754-3  30823-2 0  9999
2 43722  97.3196 158.5283 0008177 240.9366 119.1088 15.89745752238813
3CAT-1                  
1 43728U 18096K   23066.20964025  .00597426  00000+0  27227-2 0  9997
2 43728  97.3241 159.0409 0007301 224.4252 135.6432 15.82265786238830
REAKTOR HELLO WORLD     
1 43743U 18096AA  23066.21578420  .00074332  00000+0  15076-2 0  9990
2 43743  97.3268 151.2702 0012273 191.2888 168.8087 15.46033408238351
ELYSIUM STAR 2 & LFF    
1 43760U 18099C   23066.18955197  .00028445  00000+0  21037-2 0  9996
2 43760  97.5806 134.0665 0010269  94.4232 265.8167 15.03097686232517
2018-099D               
1 43761U 18099D   23066.15524079  .00004708  00000+0  41398-3 0  9994
2 43761  97.5865 130.5035 0014751 105.8467 254.4413 14.96918145232300
AISTECHSAT 2            
1 43768U 18099L   23066.10482806  .00008963  00000+0  77471-3 0  9995
2 43768  97.5807 128.8514 0012091 107.8123 252.4420 14.97371517231965
FOX-1CLIFF (AO-95)      
1 43770U 18099N   23066.11160007  .00011393  00000+0  95446-3 0  9998
2 43770  97.5849 130.4211 0014906 114.5532 245.7246 14.98489280232312
RANGE-A                 
1 43772U 18099Q   23066.15454058  .00014018  00000+0  11339-2 0  9991
2 43772  97.5996 132.8866 0012821  95.2427 265.0260 14.99815345232363
RANGE-B                 
1 43773U 18099R   23066.14074742  .00007622  00000+0  65652-3 0  9990
2 43773  97.5788 128.8266 0014291 100.3443 259.9392 14.97532876232283
2018-099T               
1 43775U 18099T   23066.61942460  .00007283  00000+0  63124-3 0  9990
2 43775  97.5858 130.7491 0015090 103.3719 256.9187 14.97297605232357
MOVE-II                 
1 43780U 18099Y   23066.15341219  .00019798  00000+0  15397-2 0  9992
2 43780  97.5848 132.4615 0012627 131.9309 228.2994 15.01246382232411
SNUSAT-2                
1 43782U 18099AA  23065.40468584  .00010859  00000+0  91009-3 0  9990
2 43782  97.5887 130.2518 0013765 100.0440 260.2336 14.98500051232238
SNUGLITE                
1 43784U 18099AC  23066.12581894  .00012417  00000+0  10271-2 0  9995
2 43784  97.5831 130.5791 0016263 105.7890 254.5128 14.98944479232378
ITASAT 1                
1 43786U 18099AE  23066.16393354  .00009748  00000+0  82027-3 0  9995
2 43786  97.5880 131.5040 0014855 106.3544 253.9314 14.98359125232367
KAZSCISAT-1             
1 43787U 18099AF  23065.88961748  .00019113  00000+0  14961-2 0  9990
2 43787  97.5752 130.8277 0012697 120.6882 239.5596 15.01005202232413
EAGLET-I                
1 43790U 18099AJ  23066.18393337  .00007976  00000+0  67536-3 0  9992
2 43790  97.5875 132.0481 0014223 109.9780 250.2976 14.98185567232104
ESEO                    
1 43792U 18099AL  23066.12013218  .00005366  00000+0  46920-3 0  9990
2 43792  97.5828 130.7327 0014579 107.4826 252.7991 14.97076818232118
CSIM-FD                 
1 43793U 18099AM  23066.14774370  .00018607  00000+0  14257-2 0  9995
2 43793  97.5844 133.6338 0017773 111.6404 248.6716 15.01763003232258
ASTROCAST 0.1           
1 43798U 18099AS  23066.12818140  .00017853  00000+0  14129-2 0  9992
2 43798  97.5908 133.0529 0015303  82.1316 278.1645 15.00571215232453
JY1SAT (JO-97)          
1 43803U 18099AX  23066.13105543  .00013272  00000+0  10856-2 0  9990
2 43803  97.5863 131.3625 0016473 102.9351 257.3713 14.99355704232395
SUOMI-100               
1 43804U 18099AY  23066.17438627  .00011685  00000+0  96335-3 0  9990
2 43804  97.5831 131.2565 0014977 107.6213 252.6647 14.99102568232403
AL-FARABI 2             
1 43805U 18099AZ  23066.41894508  .00013305  00000+0  10608-2 0  9991
2 43805  97.5903 132.3946 0012235  98.2099 262.0521 15.00387138232486
CENTAURI-1              
1 43809U 18099BD  23066.15285377  .00008296  00000+0  69928-3 0  9997
2 43809  97.5863 131.4144 0015348 104.9366 255.3557 14.98333964232089
CHOMPTT                 
1 43855U 18104G   23066.20479736  .00040254  00000+0  11933-2 0  9997
2 43855  85.0295 235.2298 0013430 345.6858  14.4008 15.34580986234901
UWE-4                   
1 43880U 18111E   23066.19641693  .00013664  00000+0  10820-2 0  9993
2 43880  97.6494 333.0014 0015826 151.8995 208.3086 15.00606195227065
ZACUBE-2                
1 43907U 18111AH  23066.83726198  .00036422  00000+0  10772-2 0  9991
2 43907  97.1571 309.1361 0015541 216.1123 204.4535 15.34704407233578
MICRODRAGON             
1 43935U 19003D   23066.80420492  .00028568  00000+0  96026-3 0  9997
2 43935  97.1139  90.3253 0013480 323.2304  36.8012 15.30694365229905
AOBA VELOX-IV           
1 43940U 19003J   23066.67193036  .00622333  00000+0  32129-2 0  9992
2 43940  97.0797 103.2150 0006630 241.0172 119.0432 15.79465224230847
M6P                     
1 44109U 19018AF  23066.20843164  .00108310  00000+0  14388-2 0  9990
2 44109  97.3741 160.1755 0032770 250.7977 108.9731 15.57199986220049
FORMOSAT 7-4            
1 44350U 19036M   23065.22520620  .00017785  00000+0  97663-3 0  9991
2 44350  24.0015  20.1095 0005628 336.6678  23.3570 15.12328870203098
METEOR-M2 2             
1 44387U 19038A   23066.83419959  .00000168  00000+0  92800-4 0  9999
2 44387  98.7615  31.0096 0000631 186.0971 174.0204 14.23757710190886
VDNH-80                 
1 44392U 19038G   23066.86723899  .00036284  00000+0  14823-2 0  9994
2 44392  97.6661  45.3104 0013864 305.2342  78.7162 15.24203305202850
D-STAR ONE (LIGHTSAT)   
1 44393U 19038H   23066.19329719  .00040346  00000+0  16311-2 0  9992
2 44393  97.6669  44.5980 0013891 308.7433  51.2562 15.24528659202943
AMGU-1 (AMURSAT)        
1 44394U 19038J   23066.90315711  .00044686  00000+0  17509-2 0  9990
2 44394  97.6640  45.4215 0013974 307.0048  52.9931 15.25551195203064
DOT-1                   
1 44399U 19038P   23066.40630152  .00026148  00000+0  12164-2 0  9994
2 44399  97.6736  42.5853 0018788 315.8195  44.1538 15.19772524202800
SOKRAT                  
1 44404U 19038U   23066.41579857  .00047475  00000+0  18811-2 0  9997
2 44404  97.6657  44.4836 0013856 309.6567  50.3447 15.25162955202969
LUCKY-7                 
1 44406U 19038W   23065.45840715  .00027170  00000+0  12366-2 0  9995
2 44406  97.6722  42.1723 0018126 310.2895  49.6755 15.20529562202690
D-STAR ONE (EXOCONNECT) 
1 44410U 19038AA  23066.38867682  .00087518  00000+0  26618-2 0  9992
2 44410  97.6566  46.9579 0009396 299.8198  60.2109 15.33645663203158
NARSSCUBE-2             
1 44415U 19022E   23066.57131228  .00038905  00000+0  89150-3 0  9998
2 44415  51.6370 278.5934 0009382 281.0180  78.9750 15.42333386200592
DUCHIFAT-3              
1 44854U 19089C   23066.79710469  .00014356  00000+0  10168-2 0  9998
2 44854  36.9678 336.4002 0008168 226.7916 173.5108 15.04187996177550
OPS-SAT                 
1 44878U 19092F   23066.08554405  .00044544  00000+0  16176-2 0  9993
2 44878  97.4771 253.9272 0010180 141.8896 218.3065 15.28113405178163
FLORIPASAT-1            
1 44885U 19093G   23066.82932496  .00007429  00000+0  88013-3 0  9995
2 44885  97.8743 149.1713 0014670  55.9889 304.2758 14.84763403173906
HUSKYSAT-1 (HO-107)     
1 45119U 19071J   23066.34740581  .00328634  00000+0  19220-2 0  9998
2 45119  51.6279 189.1802 0007430 357.1003   2.9953 15.76821430174247
BY70-2                  
1 45857U 20042B   23066.83050817  .00029947  00000+0  34360-2 0  9994
2 45857  97.9331 146.6959 0008350 333.8466  26.2483 14.85779170144465
SALSAT                  
1 46495U 20068K   23065.41512380  .00010210  00000+0  69387-3 0  9993
2 46495  97.7588  12.4896 0017701 107.1141 253.2026 15.06430805133598
